      2.10          N: GNSS NAV DATA                        RINEX VERSION / TYPE
fic2rin                                 07/18/2019 00:19:30 PGM / RUN BY / DATE
                                                            END OF HEADER
 6 19  7 17  8  0  0.0 1.471149735153e-04-1.125499693444e-11 0.000000000000e+00
    3.500000000000e+01-1.131250000000e+02 4.064812172886e-09-3.062956080141e+00
   -5.820766091347e-06 1.415485632606e-03 4.306435585022e-06 5.153621391296e+03
    2.880000000000e+05 4.470348358154e-08 2.418910282717e+00-1.024454832077e-07
    9.760222627420e-01 3.078125000000e+02-1.081396715737e+00-7.938544957976e-09
   -2.967980771169e-10 1.000000000000e+00 2.062000000000e+03 0.000000000000e+00
    2.400000000000e+00 0.000000000000e+00 4.190951585770e-09 3.500000000000e+01
    2.808000000000e+05 4.000000000000e+00
22 19  7 17  8  0  0.0-7.321378216147e-04-5.002220859751e-12 0.000000000000e+00
    1.000000000000e+01-6.340625000000e+01 4.789842373304e-09-1.989489840386e+00
   -3.069639205933e-06 7.112183142453e-03 1.121126115322e-05 5.153764369965e+03
    2.880000000000e+05 5.401670932770e-08-2.889206856411e+00 1.825392246246e-07
    9.282529857371e-01 1.420000000000e+02-1.313786775144e+00-7.997118826385e-09
    4.403754862638e-10 1.000000000000e+00 2.062000000000e+03 0.000000000000e+00
    2.400000000000e+00 0.000000000000e+00-1.816079020500e-08 1.000000000000e+01
    2.808000000000e+05 4.000000000000e+00
24 19  7 17  8  0  0.0-6.891414523125e-05-4.547473508865e-13 0.000000000000e+00
    9.000000000000e+00-2.237500000000e+01 5.256647531898e-09-3.018889704805e+00
   -1.251697540283e-06 8.412831346504e-03 7.499009370804e-06 5.153705089569e+03
    2.880000000000e+05-1.080334186554e-07-7.730573068598e-01-1.639127731323e-07
    9.381557064308e-01 2.233125000000e+02 6.018463366985e-01-8.138196131392e-09
   -4.868059917093e-10 1.000000000000e+00 2.062000000000e+03 0.000000000000e+00
    2.400000000000e+00 0.000000000000e+00 2.793967723846e-09 9.000000000000e+00
    2.808000000000e+05 4.000000000000e+00
31 19  7 17  8  0  0.0 2.375012263656e-05-2.614797267597e-12 0.000000000000e+00
    3.200000000000e+01-1.425000000000e+01 4.823415200318e-09 2.042990799704e+00
   -5.327165126801e-07 9.239302133210e-03 8.257105946541e-06 5.153647178650e+03
    2.880000000000e+05-2.607703208923e-08-6.920066947536e-01 2.607703208923e-07
    9.595851595107e-01 2.210937500000e+02 1.109809446304e-02-7.980332412877e-09
   -6.000249934494e-10 1.000000000000e+00 2.062000000000e+03 0.000000000000e+00
    2.400000000000e+00 0.000000000000e+00-1.350417733192e-08 3.200000000000e+01
    2.808000000000e+05 4.000000000000e+00
16 19  7 17  8  0  0.0-5.692150443792e-05-3.183231456205e-12 0.000000000000e+00
    7.800000000000e+01 1.179375000000e+02 3.825873648708e-09-1.989047467125e-01
    6.143003702164e-06 1.074626052286e-02 9.629875421524e-06 5.153613346100e+03
    2.880000000000e+05 4.842877388000e-08 4.130705963112e-01 1.154839992523e-07
    9.828854302662e-01 2.039687500000e+02 5.821309583996e-01-7.790324498285e-09
   -1.325055193867e-10 1.000000000000e+00 2.062000000000e+03 0.000000000000e+00
    2.400000000000e+00 0.000000000000e+00-1.071020960808e-08 7.800000000000e+01
    2.808000000000e+05 4.000000000000e+00
 9 19  7 17  8  0  0.0 3.690482117236e-04-8.412825991400e-12 0.000000000000e+00
    4.100000000000e+01 1.746875000000e+01 5.138785479613e-09-7.539146127126e-01
    8.028000593185e-07 1.222128979862e-03 5.967915058136e-06 5.153627784729e+03
    2.880000000000e+05-1.862645149231e-09-1.782367362023e+00-1.676380634308e-08
    9.520647233744e-01 2.652187500000e+02 1.728202596312e+00-8.213556413307e-09
    4.478757986819e-10 1.000000000000e+00 2.062000000000e+03 0.000000000000e+00
    2.400000000000e+00 0.000000000000e+00 1.396983861923e-09 4.100000000000e+01
    2.808000000000e+05 4.000000000000e+00
 8 19  7 17  8  0  0.0-1.515080220997e-04-1.477928890381e-12 0.000000000000e+00
    8.700000000000e+01 7.621875000000e+01 4.432327481373e-09-9.863268221626e-01
    4.010275006294e-06 4.390280111693e-03 1.385807991028e-06 5.153768356323e+03
    2.880000000000e+05-4.842877388000e-08 1.359490120700e+00-1.378357410431e-07
    9.700650730698e-01 3.600937500000e+02-2.027758810351e-01-8.310346159274e-09
    1.292910997790e-10 1.000000000000e+00 2.062000000000e+03 0.000000000000e+00
    2.400000000000e+00 0.000000000000e+00 5.122274160385e-09 8.700000000000e+01
    2.808000000000e+05 4.000000000000e+00
13 19  7 17  8  0  0.0-5.422672256827e-05 1.818989403546e-12 0.000000000000e+00
    1.110000000000e+02 1.215625000000e+01 4.796985527988e-09-2.065198033662e+00
    5.941838026047e-07 3.560599405318e-03 5.196779966354e-06 5.153656717300e+03
    2.880000000000e+05 4.284083843231e-08-1.644297140536e+00 2.235174179077e-08
    9.674112226405e-01 2.802500000000e+02 1.248023509211e+00-8.016405344031e-09
    3.410856361573e-10 1.000000000000e+00 2.062000000000e+03 0.000000000000e+00
    2.400000000000e+00 0.000000000000e+00-1.117587089539e-08 1.110000000000e+02
    2.808000000000e+05 4.000000000000e+00
27 19  7 17  8  0  0.0-1.873034052551e-04-1.080024958355e-11 0.000000000000e+00
    6.600000000000e+01 6.809375000000e+01 4.243748197718e-09-1.143369054756e+00
    3.570690751076e-06 7.155932369642e-03 1.292675733566e-06 5.153648101807e+03
    2.880000000000e+05 1.769512891769e-07 1.371249711609e+00-8.009374141693e-08
    9.783658253208e-01 3.658750000000e+02 5.166179333820e-01-8.225342618536e-09
    7.536028191537e-11 1.000000000000e+00 2.062000000000e+03 0.000000000000e+00
    2.400000000000e+00 0.000000000000e+00 1.396983861923e-09 6.600000000000e+01
    2.808000000000e+05 4.000000000000e+00
25 19  7 17  8  0  0.0-1.512467861176e-06-2.614797267597e-12 0.000000000000e+00
    4.400000000000e+01 9.603125000000e+01 4.120171621686e-09 1.271107175927e+00
    5.049630999565e-06 8.385933353566e-03 1.014210283756e-05 5.153694011688e+03
    2.880000000000e+05-1.396983861923e-07 3.292541400822e-01 1.229345798492e-07
    9.699895674789e-01 1.898125000000e+02 9.037026939074e-01-7.838183634667e-09
   -1.778645516296e-10 1.000000000000e+00 2.062000000000e+03 0.000000000000e+00
    2.400000000000e+00 0.000000000000e+00 5.587935447693e-09 4.400000000000e+01
    2.808000000000e+05 4.000000000000e+00
23 19  7 17  8  0  0.0-1.768413931131e-04 1.818989403546e-12 0.000000000000e+00
    7.900000000000e+01 1.734375000000e+01 5.273791103139e-09-2.469155820674e+00
    5.569308996201e-07 1.333762006834e-02 5.526468157768e-06 5.153544422150e+03
    2.880000000000e+05 2.216547727585e-07-1.787979891122e+00-1.210719347000e-07
    9.428784434032e-01 2.617812500000e+02-2.239513394985e+00-8.135696027253e-09
    5.693094283086e-10 1.000000000000e+00 2.062000000000e+03 0.000000000000e+00
    2.400000000000e+00 0.000000000000e+00-2.002343535423e-08 7.900000000000e+01
    2.808000000000e+05 4.000000000000e+00
14 19  7 17  8  0  0.0-7.113721221685e-05 1.818989403546e-12 0.000000000000e+00
    9.900000000000e+01 1.431250000000e+01 4.987350600314e-09-1.371976256707e+00
    1.057982444763e-06 1.077921828255e-02 5.213543772697e-06 5.153713043213e+03
    2.880000000000e+05 1.415610313416e-07-1.689075424474e+00 2.402812242508e-07
    9.600004161221e-01 2.770625000000e+02-1.932600228831e+00-8.117838140543e-09
    3.614436270064e-10 1.000000000000e+00 2.062000000000e+03 0.000000000000e+00
    2.400000000000e+00 0.000000000000e+00-9.778887033463e-09 9.900000000000e+01
    2.808000000000e+05 4.000000000000e+00
11 19  7 17  8  0  0.0-5.591376684606e-04 9.436007530894e-12 0.000000000000e+00
    9.100000000000e+01-5.762500000000e+01 5.672379134502e-09 2.257391298437e+00
   -2.926215529442e-06 1.675682479981e-02-9.424984455109e-07 5.153717916489e+03
    2.880000000000e+05 2.011656761169e-07 1.972940402601e+00 1.061707735062e-07
    9.098531496872e-01 3.675937500000e+02 1.909655055107e+00-8.704648297827e-09
   -2.907263956356e-10 1.000000000000e+00 2.062000000000e+03 0.000000000000e+00
    3.400000000000e+00 0.000000000000e+00-1.210719347000e-08 9.100000000000e+01
    2.808000000000e+05 4.000000000000e+00
21 19  7 17  8  0  0.0-1.532100141048e-04 7.048583938740e-12 0.000000000000e+00
    7.900000000000e+01-1.148437500000e+02 4.819129307508e-09 1.137643026621e+00
   -6.530433893204e-06 2.450778149068e-02 4.032626748085e-06 5.153702033997e+03
    2.880000000000e+05-1.732259988785e-07 2.361547604417e+00-5.755573511124e-07
    9.492205019526e-01 3.010625000000e+02-1.429289776571e+00-8.588572034213e-09
   -2.817974522807e-10 1.000000000000e+00 2.062000000000e+03 0.000000000000e+00
    2.400000000000e+00 0.000000000000e+00-1.024454832077e-08 7.900000000000e+01
    2.808000000000e+05 4.000000000000e+00
19 19  7 17  8  0  0.0-2.930932678282e-04 4.888534022029e-12 0.000000000000e+00
    7.800000000000e+01 4.840625000000e+01 4.272320816454e-09 1.588907453036e+00
    2.047047019005e-06 9.626546525396e-03 1.512467861176e-06 5.153637825012e+03
    2.880000000000e+05-9.313225746155e-09 1.473937192246e+00-1.844018697739e-07
    9.818040894983e-01 3.635000000000e+02 1.455160030125e+00-8.189269687382e-09
   -2.035799084918e-11 1.000000000000e+00 2.062000000000e+03 0.000000000000e+00
    2.400000000000e+00 0.000000000000e+00-1.536682248116e-08 7.800000000000e+01
    2.808000000000e+05 4.000000000000e+00
18 19  7 17  8  0  0.0 7.053138688207e-05 2.955857780762e-12 0.000000000000e+00
    5.300000000000e+01-1.359375000000e+02 4.460542942375e-09 2.720664633574e+00
   -6.889924407005e-06 1.560581417289e-02 3.146007657051e-06 5.153691251755e+03
    2.880000000000e+05 1.676380634308e-07 2.370975881759e+00-1.117587089539e-08
    9.548897761806e-01 3.135000000000e+02 1.408708126942e+00-7.992832933574e-09
   -3.128701751558e-10 1.000000000000e+00 2.062000000000e+03 0.000000000000e+00
    2.400000000000e+00 0.000000000000e+00-5.587935447693e-09 5.300000000000e+01
    2.808000000000e+05 4.000000000000e+00
